[{"OBJECT_NAME":"STARLINK-33549","OBJECT_ID":"2024-237Y","EPOCH":"2025-09-03T13:53:25.528416","MEAN_MOTION":15.27567004,"ECCENTRICITY":0.00026599,"INCLINATION":43.0002,"RA_OF_ASC_NODE":193.2493,"ARG_OF_PERICENTER":58.0233,"MEAN_ANOMALY":302.0877,"EPHEMERIS_TYPE":0,"CLASSIFICATION_TYPE":"U","NORAD_CAT_ID":62289,"ELEMENT_SET_NO":999,"REV_AT_EPOCH":4257,"BSTAR":0.0023018259,"MEAN_MOTION_DOT":0.00063605,"MEAN_MOTION_DDOT":0},{"OBJECT_NAME":"STARLINK-32648","OBJECT_ID":"2024-239A","EPOCH":"2025-09-03T13:39:52.337664","MEAN_MOTION":15.39645099,"ECCENTRICITY":9.514e-5,"INCLINATION":53.161,"RA_OF_ASC_NODE":333.2311,"ARG_OF_PERICENTER":135.662,"MEAN_ANOMALY":224.4461,"EPHEMERIS_TYPE":0,"CLASSIFICATION_TYPE":"U","NORAD_CAT_ID":62301,"ELEMENT_SET_NO":999,"REV_AT_EPOCH":4087,"BSTAR":0.0019779813,"MEAN_MOTION_DOT":0.00079614,"MEAN_MOTION_DDOT":0},{"OBJECT_NAME":"STARLINK-32594","OBJECT_ID":"2024-239B","EPOCH":"2025-09-03T13:36:21.173472","MEAN_MOTION":15.30194196,"ECCENTRICITY":0.00010119,"INCLINATION":53.1589,"RA_OF_ASC_NODE":340.8744,"ARG_OF_PERICENTER":92.0631,"MEAN_ANOMALY":268.0486,"EPHEMERIS_TYPE":0,"CLASSIFICATION_TYPE":"U","NORAD_CAT_ID":62302,"ELEMENT_SET_NO":999,"REV_AT_EPOCH":4076,"BSTAR":0.0012766708,"MEAN_MOTION_DOT":0.00037637,"MEAN_MOTION_DDOT":0},{"OBJECT_NAME":"STARLINK-32621","OBJECT_ID":"2024-239C","EPOCH":"2025-09-03T05:31:56.519328","MEAN_MOTION":15.39685667,"ECCENTRICITY":0.00024237,"INCLINATION":53.1599,"RA_OF_ASC_NODE":334.6702,"ARG_OF_PERICENTER":89.8457,"MEAN_ANOMALY":270.2825,"EPHEMERIS_TYPE":0,"CLASSIFICATION_TYPE":"U","NORAD_CAT_ID":62303,"ELEMENT_SET_NO":999,"REV_AT_EPOCH":4082,"BSTAR":0.0018738325,"MEAN_MOTION_DOT":0.00075464,"MEAN_MOTION_DDOT":0},{"OBJECT_NAME":"STARLINK-32597","OBJECT_ID":"2024-239D","EPOCH":"2025-09-03T13:59:56.328576","MEAN_MOTION":15.39720751,"ECCENTRICITY":5.737e-5,"INCLINATION":53.1604,"RA_OF_ASC_NODE":333.3197,"ARG_OF_PERICENTER":93.0394,"MEAN_ANOMALY":267.0677,"EPHEMERIS_TYPE":0,"CLASSIFICATION_TYPE":"U","NORAD_CAT_ID":62304,"ELEMENT_SET_NO":999,"REV_AT_EPOCH":4087,"BSTAR":0.0024724457,"MEAN_MOTION_DOT":0.00100136,"MEAN_MOTION_DDOT":0},{"OBJECT_NAME":"STARLINK-32649","OBJECT_ID":"2024-239E","EPOCH":"2025-09-03T14:11:55.993920","MEAN_MOTION":15.30220769,"ECCENTRICITY":0.00010949,"INCLINATION":53.1613,"RA_OF_ASC_NODE":342.6019,"ARG_OF_PERICENTER":94.3727,"MEAN_ANOMALY":265.7399,"EPHEMERIS_TYPE":0,"CLASSIFICATION_TYPE":"U","NORAD_CAT_ID":62305,"ELEMENT_SET_NO":999,"REV_AT_EPOCH":4074,"BSTAR":0.0016298891,"MEAN_MOTION_DOT":0.00048258,"MEAN_MOTION_DDOT":0},{"OBJECT_NAME":"STARLINK-32633","OBJECT_ID":"2024-239F","EPOCH":"2025-09-03T13:20:25.834848","MEAN_MOTION":15.30237399,"ECCENTRICITY":0.00015404,"INCLINATION":53.1586,"RA_OF_ASC_NODE":343.0857,"ARG_OF_PERICENTER":103.266,"MEAN_ANOMALY":256.8513,"EPHEMERIS_TYPE":0,"CLASSIFICATION_TYPE":"U","NORAD_CAT_ID":62306,"ELEMENT_SET_NO":999,"REV_AT_EPOCH":4073,"BSTAR":0.001580823,"MEAN_MOTION_DOT":0.0004681,"MEAN_MOTION_DDOT":0},{"OBJECT_NAME":"STARLINK-32646","OBJECT_ID":"2024-239G","EPOCH":"2025-09-03T13:32:43.244160","MEAN_MOTION":15.3956751,"ECCENTRICITY":0.00019735,"INCLINATION":53.1603,"RA_OF_ASC_NODE":333.1978,"ARG_OF_PERICENTER":49.7972,"MEAN_ANOMALY":310.3205,"EPHEMERIS_TYPE":0,"CLASSIFICATION_TYPE":"U","NORAD_CAT_ID":62307,"ELEMENT_SET_NO":999,"REV_AT_EPOCH":4087,"BSTAR":0.0023741727,"MEAN_MOTION_DOT":0.000956,"MEAN_MOTION_DDOT":0},{"OBJECT_NAME":"STARLINK-32706","OBJECT_ID":"2024-239H","EPOCH":"2025-09-03T15:37:02.778240","MEAN_MOTION":15.30123299,"ECCENTRICITY":0.00032051,"INCLINATION":53.1607,"RA_OF_ASC_NODE":342.9649,"ARG_OF_PERICENTER":40.8429,"MEAN_ANOMALY":319.2811,"EPHEMERIS_TYPE":0,"CLASSIFICATION_TYPE":"U","NORAD_CAT_ID":62308,"ELEMENT_SET_NO":999,"REV_AT_EPOCH":4074,"BSTAR":0.0013873442,"MEAN_MOTION_DOT":0.00040862,"MEAN_MOTION_DDOT":0},{"OBJECT_NAME":"STARLINK-32678","OBJECT_ID":"2024-239J","EPOCH":"2025-09-03T13:33:11.781216","MEAN_MOTION":15.39606752,"ECCENTRICITY":0.00012151,"INCLINATION":53.1609,"RA_OF_ASC_NODE":333.1993,"ARG_OF_PERICENTER":74.8582,"MEAN_ANOMALY":285.2557,"EPHEMERIS_TYPE":0,"CLASSIFICATION_TYPE":"U","NORAD_CAT_ID":62309,"ELEMENT_SET_NO":999,"REV_AT_EPOCH":4087,"BSTAR":0.0023300409,"MEAN_MOTION_DOT":0.00093914,"MEAN_MOTION_DDOT":0},{"OBJECT_NAME":"STARLINK-32696","OBJECT_ID":"2024-239K","EPOCH":"2025-09-03T13:58:25.100544","MEAN_MOTION":15.30202361,"ECCENTRICITY":0.00011111,"INCLINATION":53.1611,"RA_OF_ASC_NODE":343.2502,"ARG_OF_PERICENTER":140.3951,"MEAN_ANOMALY":219.7131,"EPHEMERIS_TYPE":0,"CLASSIFICATION_TYPE":"U","NORAD_CAT_ID":62310,"ELEMENT_SET_NO":999,"REV_AT_EPOCH":4073,"BSTAR":0.0013708394,"MEAN_MOTION_DOT":0.00040465,"MEAN_MOTION_DDOT":0},{"OBJECT_NAME":"STARLINK-32700","OBJECT_ID":"2024-239L","EPOCH":"2025-09-03T15:26:14.631360","MEAN_MOTION":15.39667516,"ECCENTRICITY":0.00017349,"INCLINATION":53.1609,"RA_OF_ASC_NODE":332.9807,"ARG_OF_PERICENTER":280.9125,"MEAN_ANOMALY":79.1685,"EPHEMERIS_TYPE":0,"CLASSIFICATION_TYPE":"U","NORAD_CAT_ID":62311,"ELEMENT_SET_NO":999,"REV_AT_EPOCH":4087,"BSTAR":0.0020278791,"MEAN_MOTION_DOT":0.00081716,"MEAN_MOTION_DDOT":0},{"OBJECT_NAME":"STARLINK-32698","OBJECT_ID":"2024-239M","EPOCH":"2025-09-03T14:07:32.559456","MEAN_MOTION":15.30207754,"ECCENTRICITY":0.00010769,"INCLINATION":53.161,"RA_OF_ASC_NODE":343.2877,"ARG_OF_PERICENTER":92.7624,"MEAN_ANOMALY":267.35,"EPHEMERIS_TYPE":0,"CLASSIFICATION_TYPE":"U","NORAD_CAT_ID":62312,"ELEMENT_SET_NO":999,"REV_AT_EPOCH":4073,"BSTAR":0.0020598358,"MEAN_MOTION_DOT":0.00061165,"MEAN_MOTION_DDOT":0},{"OBJECT_NAME":"STARLINK-32634","OBJECT_ID":"2024-239N","EPOCH":"2025-09-03T17:00:12.214944","MEAN_MOTION":15.39620409,"ECCENTRICITY":0.0001714,"INCLINATION":53.1617,"RA_OF_ASC_NODE":332.6763,"ARG_OF_PERICENTER":111.7278,"MEAN_ANOMALY":248.3909,"EPHEMERIS_TYPE":0,"CLASSIFICATION_TYPE":"U","NORAD_CAT_ID":62313,"ELEMENT_SET_NO":999,"REV_AT_EPOCH":4089,"BSTAR":0.0018368607,"MEAN_MOTION_DOT":0.00073789,"MEAN_MOTION_DDOT":0},{"OBJECT_NAME":"STARLINK-32651","OBJECT_ID":"2024-239P","EPOCH":"2025-09-03T14:51:26.686368","MEAN_MOTION":15.30143458,"ECCENTRICITY":0.00012051,"INCLINATION":53.1594,"RA_OF_ASC_NODE":342.7683,"ARG_OF_PERICENTER":81.3409,"MEAN_ANOMALY":278.7728,"EPHEMERIS_TYPE":0,"CLASSIFICATION_TYPE":"U","NORAD_CAT_ID":62314,"ELEMENT_SET_NO":999,"REV_AT_EPOCH":4074,"BSTAR":0.0018924256,"MEAN_MOTION_DOT":0.00056014,"MEAN_MOTION_DDOT":0},{"OBJECT_NAME":"STARLINK-32627","OBJECT_ID":"2024-239Q","EPOCH":"2025-09-03T14:04:29.672256","MEAN_MOTION":15.30230994,"ECCENTRICITY":0.00012728,"INCLINATION":53.1607,"RA_OF_ASC_NODE":343.2318,"ARG_OF_PERICENTER":52.3469,"MEAN_ANOMALY":307.7647,"EPHEMERIS_TYPE":0,"CLASSIFICATION_TYPE":"U","NORAD_CAT_ID":62315,"ELEMENT_SET_NO":999,"REV_AT_EPOCH":4073,"BSTAR":0.0017616842,"MEAN_MOTION_DOT":0.00052234,"MEAN_MOTION_DDOT":0}]
