STARLINK-33549          
1 62289U 24237Y   25246.57876769  .00063605  00000+0  23018-2 0  9994
2 62289  43.0002 193.2493 0002659  58.0233 302.0877 15.27567004 42574
STARLINK-32648          
1 62301U 24239A   25246.56935576  .00079614  00000+0  19780-2 0  9990
2 62301  53.1610 333.2311 0000951 135.6620 224.4461 15.39645099 40877
STARLINK-32594          
1 62302U 24239B   25246.56691173  .00037637  00000+0  12767-2 0  9990
2 62302  53.1589 340.8744 0001011  92.0631 268.0486 15.30194196 40760
STARLINK-32621          
1 62303U 24239C   25246.23051527  .00075464  00000+0  18738-2 0  9992
2 62303  53.1599 334.6702 0002423  89.8457 270.2825 15.39685667 40821
STARLINK-32597          
1 62304U 24239D   25246.58329084  .00100136  00000+0  24724-2 0  9994
2 62304  53.1604 333.3197 0000573  93.0394 267.0677 15.39720751 40872
STARLINK-32649          
1 62305U 24239E   25246.59162030  .00048258  00000+0  16299-2 0  9996
2 62305  53.1613 342.6019 0001094  94.3727 265.7399 15.30220769 40749
STARLINK-32633          
1 62306U 24239F   25246.55585457  .00046810  00000+0  15808-2 0  9992
2 62306  53.1586 343.0857 0001540 103.2660 256.8513 15.30237399 40731
STARLINK-32646          
1 62307U 24239G   25246.56438940  .00095600  00000+0  23742-2 0  9995
2 62307  53.1603 333.1978 0001973  49.7972 310.3205 15.39567510 40875
STARLINK-32706          
1 62308U 24239H   25246.65072660  .00040862  00000+0  13873-2 0  9993
2 62308  53.1607 342.9649 0003205  40.8429 319.2811 15.30123299 40742
STARLINK-32678          
1 62309U 24239J   25246.56471969  .00093914  00000+0  23300-2 0  9991
2 62309  53.1609 333.1993 0001215  74.8582 285.2557 15.39606752 40877
STARLINK-32696          
1 62310U 24239K   25246.58223496  .00040465  00000+0  13708-2 0  9999
2 62310  53.1611 343.2502 0001111 140.3951 219.7131 15.30202361 40738
STARLINK-32700          
1 62311U 24239L   25246.64322490  .00081716  00000+0  20279-2 0  9996
2 62311  53.1609 332.9807 0001734 280.9125  79.1685 15.39667516 40877
STARLINK-32698          
1 62312U 24239M   25246.58857129  .00061165  00000+0  20598-2 0  9992
2 62312  53.1610 343.2877 0001076  92.7624 267.3500 15.30207754 40731
STARLINK-32634          
1 62313U 24239N   25246.70847471  .00073789  00000+0  18369-2 0  9994
2 62313  53.1617 332.6763 0001714 111.7278 248.3909 15.39620409 40895
STARLINK-32651          
1 62314U 24239P   25246.61905887  .00056014  00000+0  18924-2 0  9990
2 62314  53.1594 342.7683 0001205  81.3409 278.7728 15.30143458 40741
STARLINK-32627          
1 62315U 24239Q   25246.58645454  .00052234  00000+0  17617-2 0  9996
2 62315  53.1607 343.2318 0001272  52.3469 307.7647 15.30230994 40730
